[{"OBJECT_NAME":"STARLINK-4000","OBJECT_ID":"2022-052H","EPOCH":"2026-03-09T20:49:44.253120","MEAN_MOTION":15.08841209,"ECCENTRICITY":0.00013298,"INCLINATION":53.2186,"RA_OF_ASC_NODE":283.1015,"ARG_OF_PERICENTER":76.0724,"MEAN_ANOMALY":284.0416,"EPHEMERIS_TYPE":0,"CLASSIFICATION_TYPE":"U","NORAD_CAT_ID":52605,"ELEMENT_SET_NO":999,"REV_AT_EPOCH":21081,"BSTAR":-0.00015962011,"MEAN_MOTION_DOT":-2.827e-5,"MEAN_MOTION_DDOT":0},{"OBJECT_NAME":"FENGYUN 1C DEB","OBJECT_ID":"1999-025DXL","EPOCH":"2026-02-25T04:10:22.321344","MEAN_MOTION":15.11307044,"ECCENTRICITY":0.00591738,"INCLINATION":99.4273,"RA_OF_ASC_NODE":43.0945,"ARG_OF_PERICENTER":165.3437,"MEAN_ANOMALY":194.9519,"EPHEMERIS_TYPE":0,"CLASSIFICATION_TYPE":"U","NORAD_CAT_ID":36283,"ELEMENT_SET_NO":999,"REV_AT_EPOCH":67788,"BSTAR":0.0012995165,"MEAN_MOTION_DOT":0.00022794,"MEAN_MOTION_DDOT":0}]
